ORBCOMM FM33            
1 25983U 99065D   25124.93895800  .00001535  00000+0  52852-3 0  9990
2 25983  45.0280 204.5611 0010083 211.9099 148.1140 14.39913097329830
ORBCOMM FM36            
1 25984U 99065E   25124.91671961  .00002008  00000+0  70409-3 0  9993
2 25984  45.0390 295.9388 0003242 101.5980 258.5233 14.38020455328193
ORBCOMM FM35            
1 25985U 99065F   25124.86559329  .00001573  00000+0  57309-3 0  9991
2 25985  45.0400 300.8734 0004365 177.2743 182.8130 14.37005974328554
ORBCOMM FM34            
1 25986U 99065G   25124.90196749  .00001461  00000+0  53532-3 0  9990
2 25986  45.0395 301.1811 0004385 132.9405 227.1811 14.37038246328673
ORBCOMM FM38            
1 33060U 08031A   25124.83780849  .00002344  00000+0  32549-3 0  9993
2 33060  48.4382 161.8086 0005318 220.9802 139.0715 14.81154928908324
ORBCOMM FM39            
1 33063U 08031D   25124.93990978  .00002266  00000+0  32844-3 0  9994
2 33063  48.4390 200.6159 0006731 175.9158 184.1813 14.79422297907392
